TRANSPORTER-10 OBJECT AG
1 59128U 24043AG  26068.92552531  .00009498  00000+0  32170-3 0  9997
2 59128  97.5471 205.7101 0009300 226.5958 133.4509 15.30759727111920
STARLINK-35237          
1 65645U 25210Z   26068.93269478  .00016453  00000+0  56643-3 0  9991
2 65645  53.1592 306.2754 0001214  94.9143 265.1996 15.30197138 27766
